[{"OBJECT_NAME":"NUSAT-35 (WILLIAMINA)","OBJECT_ID":"2023-001AR","EPOCH":"2026-03-09T22:28:40.425600","MEAN_MOTION":15.3245616,"ECCENTRICITY":0.00136635,"INCLINATION":97.1993,"RA_OF_ASC_NODE":124.278,"ARG_OF_PERICENTER":97.0313,"MEAN_ANOMALY":263.2484,"EPHEMERIS_TYPE":0,"CLASSIFICATION_TYPE":"U","NORAD_CAT_ID":55048,"ELEMENT_SET_NO":999,"REV_AT_EPOCH":17719,"BSTAR":0.00053479647,"MEAN_MOTION_DOT":0.0001675,"MEAN_MOTION_DDOT":0},{"OBJECT_NAME":"STARLINK-31361","OBJECT_ID":"2024-031K","EPOCH":"2026-03-09T21:14:45.682080","MEAN_MOTION":15.30184939,"ECCENTRICITY":0.00011288,"INCLINATION":53.1602,"RA_OF_ASC_NODE":295.7495,"ARG_OF_PERICENTER":64.2817,"MEAN_ANOMALY":295.83,"EPHEMERIS_TYPE":0,"CLASSIFICATION_TYPE":"U","NORAD_CAT_ID":58974,"ELEMENT_SET_NO":999,"REV_AT_EPOCH":11656,"BSTAR":2.110207e-5,"MEAN_MOTION_DOT":2.66e-6,"MEAN_MOTION_DDOT":0}]
